[{"OBJECT_NAME":"SBSS (USA 216)","OBJECT_ID":"2010-048A","EPOCH":"2026-03-09T21:16:11.917056","MEAN_MOTION":15.1572421,"ECCENTRICITY":0.0082264,"INCLINATION":97.7474,"RA_OF_ASC_NODE":312.3885,"ARG_OF_PERICENTER":184.8326,"MEAN_ANOMALY":306.5835,"EPHEMERIS_TYPE":0,"CLASSIFICATION_TYPE":"U","NORAD_CAT_ID":37168,"ELEMENT_SET_NO":999,"REV_AT_EPOCH":83742,"BSTAR":0.00024191,"MEAN_MOTION_DOT":4.946e-5,"MEAN_MOTION_DDOT":0},{"OBJECT_NAME":"STARLINK-31480","OBJECT_ID":"2024-056L","EPOCH":"2026-03-09T11:30:31.424832","MEAN_MOTION":15.27570263,"ECCENTRICITY":0.00022487,"INCLINATION":43.003,"RA_OF_ASC_NODE":231.7654,"ARG_OF_PERICENTER":267.0952,"MEAN_ANOMALY":92.9642,"EPHEMERIS_TYPE":0,"CLASSIFICATION_TYPE":"U","NORAD_CAT_ID":59306,"ELEMENT_SET_NO":999,"REV_AT_EPOCH":11112,"BSTAR":-1.7053959e-5,"MEAN_MOTION_DOT":-7.32e-6,"MEAN_MOTION_DDOT":0}]
